FENGYUN 3C              
1 39260U 13052A   23024.80168477  .00000226  00000+0  13548-3 0  9996
2 39260  98.4379  46.5072 0011184   2.9159 357.2074 14.15982035483244
CASSIOPE                
1 39265U 13055A   23024.13598412  .00028322  00000+0  72059-3 0  9995
2 39265  80.9615  32.3690 0597242  21.6215 340.9079 14.45071650484107
ZACUBE-1 (TSHEPISOSAT)  
1 39417U 13066B   23024.84419075  .00006557  00000+0  78116-3 0  9997
2 39417  97.6678 351.8459 0057561  39.9821 320.5610 14.83449133495937
CINEMA-3 (KHUSAT-2)     
1 39426U 13066L   23023.83453292  .00003122  00000+0  48101-3 0  9990
2 39426  97.8203 319.4730 0100730 249.5197 109.5175 14.70760433491928
TRITON-1                
1 39427U 13066M   23024.79776164  .00004879  00000+0  75287-3 0  9998
2 39427  97.8305 316.2369 0108558 277.0386  81.8485 14.69882701491474
DELFI-N3XT              
1 39428U 13066N   23024.78794528  .00008467  00000+0  12657-2 0  9990
2 39428  97.8297 314.9484 0112796 289.9711  68.9377 14.70704891491225
GOMX-1                  
1 39430U 13066Q   23024.74787732  .00003210  00000+0  56880-3 0  9996
2 39430  97.7965 284.1930 0149065  66.9675 294.7178 14.60891685488595
BRITE-PL1 (LEM)         
1 39431U 13066R   23024.09759836  .00001613  00000+0  35143-3 0  9993
2 39431  97.6798 222.9755 0199503 264.7503  93.0900 14.47602754484483
ICUBE-1                 
1 39432U 13066S   23024.48024291  .00007795  00000+0  74036-3 0  9998
2 39432  97.4777  22.0485 0028370 242.9679 116.8645 14.93456271498884
HUMSAT-D                
1 39433U 13066T   23024.46879067  .00009497  00000+0  83678-3 0  9999
2 39433  97.4498  29.8629 0027517 213.1914 146.7583 14.96365708499425
VELOX-PII               
1 39438U 13066Y   23024.82908375  .00004426  00000+0  57091-3 0  9996
2 39438  97.7246 343.3826 0069951  95.5139 265.4057 14.79766972494863
FIRST-MOVE              
1 39439U 13066Z   23024.47315658  .00013265  00000+0  14555-2 0  9992
2 39439  97.6651 354.5949 0061071  34.2603 326.2529 14.86443202495940
CUBEBUG-2 (LO-74)       
1 39440U 13066AA  23024.45110845  .00004321  00000+0  57559-3 0  9998
2 39440  97.7568 338.1837 0078615 133.5381 227.2397 14.77993542494110
NEE-02 KRYSAOR          
1 39441U 13066AB  23023.84615100  .00003080  00000+0  42692-3 0  9998
2 39441  97.7675 334.6275 0080422 150.6510 209.9253 14.76441613493708
FUNCUBE-1 (AO-73)       
1 39444U 13066AE  23024.82031199  .00007453  00000+0  85990-3 0  9996
2 39444  97.6541 354.2764 0055785  27.0281 333.3820 14.84787561494942
HINCUBE                 
1 39445U 13066AF  23024.83495537  .00007572  00000+0  87818-3 0  9991
2 39445  97.6557 354.0838 0055972  29.3696 331.0645 14.84560698494471
UWE-3                   
1 39446U 13066AG  23024.15618175  .00005679  00000+0  71702-3 0  9993
2 39446  97.7175 344.1747 0069032  89.6331 271.2792 14.80588173493690
AIST-1 (RS-41)          
1 39492U 13078C   23024.86496698  .00002650  00000+0  27841-3 0  9990
2 39492  82.4181  24.6957 0021289  92.0681 268.2976 14.88961842492729
SPROUT                  
1 39770U 14029E   23024.82663321  .00023003  00000+0  20968-2 0  9998
2 39770  97.9565 148.9258 0008359  72.0384 288.1743 14.95097950470682
UNISAT-6                
1 40012U 14033C   23024.50396261  .00004653  00000+0  66949-3 0  9995
2 40012  97.6612 205.8019 0056811 161.4768 198.8528 14.75717224462574
BUGSAT-1 (TITA)         
1 40014U 14033E   23024.55375870  .00006272  00000+0  53283-3 0  9991
2 40014  98.1446  37.1858 0031070  26.5142 333.7657 14.97889042469225
DUCHIFAT-1              
1 40021U 14033M   23024.80807273  .00010481  00000+0  96256-3 0  9998
2 40021  98.0416 344.6312 0012518  36.5224 323.6847 14.94965440467746
NANOSATC-BR1            
1 40024U 14033Q   23024.80280956  .00009360  00000+0  89361-3 0  9997
2 40024  98.0126 336.7474 0012517  44.6652 315.5573 14.93463104467512
QB50P1                  
1 40025U 14033R   23024.78014525  .00007721  00000+0  76722-3 0  9998
2 40025  97.9833 329.3199 0013054  54.0501 306.1926 14.91926307467259
DTUSAT-2                
1 40030U 14033W   23024.78681670  .00006854  00000+0  69320-3 0  9997
2 40030  97.9569 323.7920 0012690  51.2499 308.9851 14.91265830467121
QB50P2                  
1 40032U 14033Y   23024.76243933  .00006954  00000+0  70355-3 0  9994
2 40032  97.9570 323.7836 0012504  52.1650 308.0698 14.91249105467109
POLYITAN-1              
1 40042U 14033AJ  23024.84019624  .00009184  00000+0  90308-3 0  9990
2 40042  97.9944 330.9218 0014865  45.4020 314.8409 14.92270536467150
TIGRISAT                
1 40043U 14033AK  23024.00255567  .00003737  00000+0  53893-3 0  9993
2 40043  97.6546 206.4701 0058839 160.4073 199.9417 14.75655287462444
AISAT                   
1 40054U 14034B   23024.07096032  .00008328  00000+0  10750-2 0  9998
2 40054  98.3645 209.6857 0011893 333.5288  26.5314 14.81205348462112
CANX-4                  
1 40055U 14034C   23024.46334197  .00002374  00000+0  35310-3 0  9994
2 40055  98.3751 194.0311 0014469  19.2794 340.8959 14.75901769461349
CANX-5                  
1 40056U 14034D   23024.47032755  .00002388  00000+0  35510-3 0  9998
2 40056  98.3755 194.0200 0014475  19.3996 340.7760 14.75901864461348
VELOX-I                 
1 40057U 14034E   23024.85420897  .00006247  00000+0  82572-3 0  9997
2 40057  98.3690 211.5407 0010356 347.5365  12.5581 14.80326955462211
METEOR-M 2              
1 40069U 14037A   23024.81548917  .00000129  00000+0  78752-4 0  9992
2 40069  98.4257  37.4353 0006597  46.9364 313.2357 14.20739535443295
DX1                     
1 40071U 14037C   23024.71723340  .00002635  00000+0  33648-3 0  9997
2 40071  98.3797 269.1050 0007739 335.7743  24.3108 14.82347061462116
UKUBE-1                 
1 40074U 14037F   23024.70453030  .00006841  00000+0  77756-3 0  9996
2 40074  98.3573 281.7382 0003389 309.3194  50.7705 14.86604928462920
FIREBIRD 3              
1 40377U 15003B   23024.35385722  .00072601  00000+0  15446-2 0  9993
2 40377  99.0779 304.8791 0077196 353.5514   6.4726 15.41519574442290
FIREBIRD 4              
1 40378U 15003C   23024.29949569  .00072739  00000+0  15422-2 0  9998
2 40378  99.0791 305.0858 0077172 353.2153   6.8037 15.41620454442291
GRIFEX                  
1 40379U 15003D   23024.79336011  .00031737  00000+0  93965-3 0  9998
2 40379  99.0845 288.4602 0102477  42.4887 318.4222 15.29697238441388
CP10 (EXOCUBE)          
1 40380U 15003E   23024.24228762  .00023289  00000+0  78883-3 0  9998
2 40380  99.0938 279.2574 0114212  72.5362 288.8317 15.24470389440746
DEORBITSAIL             
1 40719U 15032E   23024.21379000  .00007027  00000+0  93903-3 0  9997
2 40719  97.7537 259.9785 0016097  12.8941 347.2679 14.79730864406517
NUDT-PHONESAT           
1 40900U 15049B   23024.88743350  .00149405  00000+0  20195-2 0  9992
2 40900  97.3777  51.2286 0005112 178.1712 304.8516 15.57219902408768
XW-2A                   
1 40903U 15049E   23024.71161135  .00099444  00000+0  81781-3 0  9998
2 40903  97.1453  90.0648 0006328  19.8533  97.8307 15.70085302413746
XW-2C                   
1 40906U 15049H   23024.80987627  .00015297  00000+0  66821-3 0  9995
2 40906  97.4958  31.8915 0011080 311.8352 125.2210 15.22149898406555
XW-2D                   
1 40907U 15049J   23024.79458289  .00017850  00000+0  75357-3 0  9992
2 40907  97.4942  32.1036 0010162 306.4707 226.9803 15.23285533406613
LILACSAT-2              
1 40908U 15049K   23024.92739186  .00008491  00000+0  42590-3 0  9990
2 40908  97.5228  28.6241 0013667 336.0291  82.6309 15.17499405406054
XW-2E                   
1 40909U 15049L   23024.87703780  .00028919  00000+0  10190-2 0  9993
2 40909  97.4607  37.3890 0008253 272.7947 172.6624 15.29217907407173
XW-2F                   
1 40910U 15049M   23024.75294647  .00028836  00000+0  10337-2 0  9990
2 40910  97.4698  36.4600 0009120 275.7896 171.0108 15.28645725406917
XW-2B                   
1 40911U 15049N   23024.80515046  .00017617  00000+0  74722-3 0  9990
2 40911  97.4923  32.6305 0010168 307.9077  43.7260 15.23130347406493
KAITUO 1B               
1 40912U 15049P   23024.85477233  .00033489  00000+0  10599-2 0  9997
2 40912  97.4286  40.9397 0009270 228.5899 254.5777 15.32649224407575
LAPAN-A2                
1 40931U 15052B   23024.41030053  .00001595  00000+0  13186-3 0  9998
2 40931   5.9979  32.7120 0013410  58.0357 302.1300 14.76997418396069
LQSAT                   
1 40958U 15057A   23024.78603472  .00001234  00000+0  19646-3 0  9990
2 40958  97.7223  65.7554 0017362 331.6334  28.3911 14.73603217392576
ATHENOXAT 1             
1 41168U 15077C   23023.92399552  .00063829  00000+0  20402-2 0  9991
2 41168  14.9969 247.5971 0007188 106.2572  13.5944 15.30592946394008
GALASSIA                
1 41170U 15077E   23023.27137086  .00035386  00000+0  12602-2 0  9994
2 41170  14.9862 247.2430 0008461 125.5306 234.5806 15.26887406393941
VELOX-II                
1 41171U 15077F   23023.50416075  .00023455  00000+0  10082-2 0  9993
2 41171  14.9921 331.9985 0007470 302.6855  57.2746 15.20343486393155
CHUBUSAT-2              
1 41338U 16012B   23023.79355469  .00005761  00000+0  41677-3 0  9993
2 41338  31.0039  59.9744 0013144 180.4773 179.5852 15.02486813380633
CHUBUSAT-3              
1 41339U 16012C   23024.80722329  .00005345  00000+0  38635-3 0  9998
2 41339  31.0118  50.4471 0012833 198.5733 326.7020 15.02484746380787
HORYU-4                 
1 41340U 16012D   23023.70135727  .00009734  00000+0  65832-3 0  9993
2 41340  31.0055  30.8987 0012877 233.9118 126.0326 15.05219751380912
OUFTI-1                 
1 41458U 16025C   23023.75473295  .00039459  00000+0  13951-2 0  9998
2 41458  98.1897 213.3372 0122256 232.8323 126.1699 15.22173354370993
E-ST@R-II               
1 41459U 16025D   23024.76142146  .00037401  00000+0  13784-2 0  9998
2 41459  98.1904 212.4971 0127208 235.1424 123.7816 15.20351965371032
